CCSDS_OMM_VERS = 2.0
CREATION_DATE  = 
ORIGINATOR     = 

OBJECT_NAME    = ATLAS CENTAUR R/B
OBJECT_ID      = 1972-065B
CENTER_NAME    = EARTH
REF_FRAME      = TEME
TIME_SYSTEM    = UTC
MEAN_ELEMENT_THEORY = SGP/SGP4

EPOCH          = 2026-02-03T13:42:41.616000
MEAN_MOTION    = 14.77583282
ECCENTRICITY   = .00331128
INCLINATION    = 35.0006
RA_OF_ASC_NODE = 145.6819
ARG_OF_PERICENTER = 82.7342
MEAN_ANOMALY   = 277.7120

EPHEMERIS_TYPE = 0
CLASSIFICATION_TYPE = U
NORAD_CAT_ID   = 6155
ELEMENT_SET_NO = 999
REV_AT_EPOCH   = 83621
BSTAR          = .22604476E-3
MEAN_MOTION_DOT = .1632E-4
MEAN_MOTION_DDOT = 0

CCSDS_OMM_VERS = 2.0
CREATION_DATE  = 
ORIGINATOR     = 

OBJECT_NAME    = SL-8 R/B
OBJECT_ID      = 1975-112B
CENTER_NAME    = EARTH
REF_FRAME      = TEME
TIME_SYSTEM    = UTC
MEAN_ELEMENT_THEORY = SGP/SGP4

EPOCH          = 2026-02-04T04:24:53.336160
MEAN_MOTION    = 14.38186560
ECCENTRICITY   = .001563
INCLINATION    = 74.0595
RA_OF_ASC_NODE = 80.5524
ARG_OF_PERICENTER = 185.0038
MEAN_ANOMALY   = 175.0963

EPHEMERIS_TYPE = 0
CLASSIFICATION_TYPE = U
NORAD_CAT_ID   = 8459
ELEMENT_SET_NO = 999
REV_AT_EPOCH   = 62705
BSTAR          = .8043E-4
MEAN_MOTION_DOT = .218E-5
MEAN_MOTION_DDOT = 0

CCSDS_OMM_VERS = 2.0
CREATION_DATE  = 
ORIGINATOR     = 

OBJECT_NAME    = SL-3 R/B
OBJECT_ID      = 1977-057B
CENTER_NAME    = EARTH
REF_FRAME      = TEME
TIME_SYSTEM    = UTC
MEAN_ELEMENT_THEORY = SGP/SGP4

EPOCH          = 2026-02-04T04:03:58.823712
MEAN_MOTION    = 15.44504573
ECCENTRICITY   = .0008289
INCLINATION    = 97.5724
RA_OF_ASC_NODE = 205.6508
ARG_OF_PERICENTER = 49.6535
MEAN_ANOMALY   = 310.5436

EPHEMERIS_TYPE = 0
CLASSIFICATION_TYPE = U
NORAD_CAT_ID   = 10114
ELEMENT_SET_NO = 999
REV_AT_EPOCH   = 66315
BSTAR          = .3164E-3
MEAN_MOTION_DOT = .14602E-3
MEAN_MOTION_DDOT = 0

CCSDS_OMM_VERS = 2.0
CREATION_DATE  = 
ORIGINATOR     = 

OBJECT_NAME    = SEASAT 1
OBJECT_ID      = 1978-064A
CENTER_NAME    = EARTH
REF_FRAME      = TEME
TIME_SYSTEM    = UTC
MEAN_ELEMENT_THEORY = SGP/SGP4

EPOCH          = 2026-02-03T22:44:04.113312
MEAN_MOTION    = 14.46131029
ECCENTRICITY   = .0001467
INCLINATION    = 108.0164
RA_OF_ASC_NODE = 54.6860
ARG_OF_PERICENTER = 291.2308
MEAN_ANOMALY   = 68.8681

EPHEMERIS_TYPE = 0
CLASSIFICATION_TYPE = U
NORAD_CAT_ID   = 10967
ELEMENT_SET_NO = 999
REV_AT_EPOCH   = 50163
BSTAR          = .13599E-3
MEAN_MOTION_DOT = .349E-5
MEAN_MOTION_DDOT = 0

CCSDS_OMM_VERS = 2.0
CREATION_DATE  = 
ORIGINATOR     = 

OBJECT_NAME    = SL-14 R/B
OBJECT_ID      = 1979-011B
CENTER_NAME    = EARTH
REF_FRAME      = TEME
TIME_SYSTEM    = UTC
MEAN_ELEMENT_THEORY = SGP/SGP4

EPOCH          = 2026-02-04T04:17:57.850656
MEAN_MOTION    = 14.91864637
ECCENTRICITY   = .0016452
INCLINATION    = 82.5258
RA_OF_ASC_NODE = 128.3651
ARG_OF_PERICENTER = 164.3618
MEAN_ANOMALY   = 195.8113

EPHEMERIS_TYPE = 0
CLASSIFICATION_TYPE = U
NORAD_CAT_ID   = 11267
ELEMENT_SET_NO = 999
REV_AT_EPOCH   = 52378
BSTAR          = .77098E-4
MEAN_MOTION_DOT = .806E-5
MEAN_MOTION_DDOT = 0

CCSDS_OMM_VERS = 2.0
CREATION_DATE  = 
ORIGINATOR     = 

OBJECT_NAME    = SL-8 R/B
OBJECT_ID      = 1979-089B
CENTER_NAME    = EARTH
REF_FRAME      = TEME
TIME_SYSTEM    = UTC
MEAN_ELEMENT_THEORY = SGP/SGP4

EPOCH          = 2026-02-03T19:53:04.839072
MEAN_MOTION    = 14.42328259
ECCENTRICITY   = .001636
INCLINATION    = 74.0696
RA_OF_ASC_NODE = 153.7207
ARG_OF_PERICENTER = 330.8881
MEAN_ANOMALY   = 29.1361

EPHEMERIS_TYPE = 0
CLASSIFICATION_TYPE = U
NORAD_CAT_ID   = 11574
ELEMENT_SET_NO = 999
REV_AT_EPOCH   = 43122
BSTAR          = .11078E-3
MEAN_MOTION_DOT = .34E-5
MEAN_MOTION_DDOT = 0

CCSDS_OMM_VERS = 2.0
CREATION_DATE  = 
ORIGINATOR     = 

OBJECT_NAME    = SL-14 R/B
OBJECT_ID      = 1980-005B
CENTER_NAME    = EARTH
REF_FRAME      = TEME
TIME_SYSTEM    = UTC
MEAN_ELEMENT_THEORY = SGP/SGP4

EPOCH          = 2026-02-03T13:35:12.246144
MEAN_MOTION    = 14.90881877
ECCENTRICITY   = .00141133
INCLINATION    = 82.5171
RA_OF_ASC_NODE = 339.5943
ARG_OF_PERICENTER = 278.7267
MEAN_ANOMALY   = 81.2353

EPHEMERIS_TYPE = 0
CLASSIFICATION_TYPE = U
NORAD_CAT_ID   = 11672
ELEMENT_SET_NO = 999
REV_AT_EPOCH   = 47140
BSTAR          = .85289197E-4
MEAN_MOTION_DOT = .866E-5
MEAN_MOTION_DDOT = 0

CCSDS_OMM_VERS = 2.0
CREATION_DATE  = 
ORIGINATOR     = 

OBJECT_NAME    = SL-8 R/B
OBJECT_ID      = 1981-003B
CENTER_NAME    = EARTH
REF_FRAME      = TEME
TIME_SYSTEM    = UTC
MEAN_ELEMENT_THEORY = SGP/SGP4

EPOCH          = 2026-02-04T05:04:25.683168
MEAN_MOTION    = 15.09717323
ECCENTRICITY   = .0264218
INCLINATION    = 82.9399
RA_OF_ASC_NODE = 320.9503
ARG_OF_PERICENTER = 295.6799
MEAN_ANOMALY   = 61.7358

EPHEMERIS_TYPE = 0
CLASSIFICATION_TYPE = U
NORAD_CAT_ID   = 12139
ELEMENT_SET_NO = 999
REV_AT_EPOCH   = 30962
BSTAR          = .62276E-3
MEAN_MOTION_DOT = .23453E-3
MEAN_MOTION_DDOT = 0

CCSDS_OMM_VERS = 2.0
CREATION_DATE  = 
ORIGINATOR     = 

OBJECT_NAME    = SL-3 R/B
OBJECT_ID      = 1981-046B
CENTER_NAME    = EARTH
REF_FRAME      = TEME
TIME_SYSTEM    = UTC
MEAN_ELEMENT_THEORY = SGP/SGP4

EPOCH          = 2026-02-04T05:24:02.957472
MEAN_MOTION    = 15.41040468
ECCENTRICITY   = .0020504
INCLINATION    = 81.2351
RA_OF_ASC_NODE = 329.8894
ARG_OF_PERICENTER = 131.7035
MEAN_ANOMALY   = 228.5966

EPHEMERIS_TYPE = 0
CLASSIFICATION_TYPE = U
NORAD_CAT_ID   = 12465
ELEMENT_SET_NO = 999
REV_AT_EPOCH   = 43327
BSTAR          = .34395E-3
MEAN_MOTION_DOT = .14344E-3
MEAN_MOTION_DDOT = 0

CCSDS_OMM_VERS = 2.0
CREATION_DATE  = 
ORIGINATOR     = 

OBJECT_NAME    = SL-3 R/B
OBJECT_ID      = 1981-103B
CENTER_NAME    = EARTH
REF_FRAME      = TEME
TIME_SYSTEM    = UTC
MEAN_ELEMENT_THEORY = SGP/SGP4

EPOCH          = 2026-02-04T03:48:51.390432
MEAN_MOTION    = 15.20962117
ECCENTRICITY   = .001406
INCLINATION    = 81.1557
RA_OF_ASC_NODE = 252.7619
ARG_OF_PERICENTER = 41.4603
MEAN_ANOMALY   = 318.7692

EPHEMERIS_TYPE = 0
CLASSIFICATION_TYPE = U
NORAD_CAT_ID   = 12904
ELEMENT_SET_NO = 999
REV_AT_EPOCH   = 96813
BSTAR          = .26478E-3
MEAN_MOTION_DOT = .5904E-4
MEAN_MOTION_DDOT = 0

CCSDS_OMM_VERS = 2.0
CREATION_DATE  = 
ORIGINATOR     = 

OBJECT_NAME    = SL-3 R/B
OBJECT_ID      = 1982-013B
CENTER_NAME    = EARTH
REF_FRAME      = TEME
TIME_SYSTEM    = UTC
MEAN_ELEMENT_THEORY = SGP/SGP4

EPOCH          = 2026-02-04T04:21:18.152640
MEAN_MOTION    = 15.21637250
ECCENTRICITY   = .0021868
INCLINATION    = 81.1738
RA_OF_ASC_NODE = 200.0280
ARG_OF_PERICENTER = 293.7368
MEAN_ANOMALY   = 66.1570

EPHEMERIS_TYPE = 0
CLASSIFICATION_TYPE = U
NORAD_CAT_ID   = 13068
ELEMENT_SET_NO = 999
REV_AT_EPOCH   = 39925
BSTAR          = .23634E-3
MEAN_MOTION_DOT = .5397E-4
MEAN_MOTION_DDOT = 0

CCSDS_OMM_VERS = 2.0
CREATION_DATE  = 
ORIGINATOR     = 

OBJECT_NAME    = SL-3 R/B
OBJECT_ID      = 1982-039B
CENTER_NAME    = EARTH
REF_FRAME      = TEME
TIME_SYSTEM    = UTC
MEAN_ELEMENT_THEORY = SGP/SGP4

EPOCH          = 2026-02-04T03:01:37.607808
MEAN_MOTION    = 15.09891826
ECCENTRICITY   = .0030069
INCLINATION    = 81.1619
RA_OF_ASC_NODE = 254.6466
ARG_OF_PERICENTER = 74.2676
MEAN_ANOMALY   = 286.1862

EPHEMERIS_TYPE = 0
CLASSIFICATION_TYPE = U
NORAD_CAT_ID   = 13154
ELEMENT_SET_NO = 999
REV_AT_EPOCH   = 37657
BSTAR          = .16304E-3
MEAN_MOTION_DOT = .2692E-4
MEAN_MOTION_DDOT = 0

