ATLAS CENTAUR R/B       
1 06155U 72065B   26034.57131500  .00001632  00000+0  22604-3 0  9992
2 06155  35.0006 145.6819 0033112  82.7342 277.7120 14.77583282836216
SL-8 R/B                
1 08459U 75112B   26035.18395065  .00000218  00000+0  80430-4 0  9994
2 08459  74.0595  80.5524 0015630 185.0038 175.0963 14.38186560627055
SL-3 R/B                
1 10114U 77057B   26035.16943083  .00014602  00000+0  31640-3 0  9992
2 10114  97.5724 205.6508 0008289  49.6535 310.5436 15.44504573663159
SEASAT 1                
1 10967U 78064A   26034.94726983  .00000349  00000+0  13599-3 0  9996
2 10967 108.0164  54.6860 0001467 291.2308  68.8681 14.46131029501630
SL-14 R/B               
1 11267U 79011B   26035.17914179  .00000806  00000+0  77098-4 0  9998
2 11267  82.5258 128.3651 0016452 164.3618 195.8113 14.91864637523784
SL-8 R/B                
1 11574U 79089B   26034.82852823  .00000340  00000+0  11078-3 0  9990
2 11574  74.0696 153.7207 0016360 330.8881  29.1361 14.42328259431228
SL-14 R/B               
1 11672U 80005B   26034.56611396  .00000866  00000+0  85289-4 0  9997
2 11672  82.5171 339.5943 0014113 278.7267  81.2353 14.90881877471409
SL-8 R/B                
1 12139U 81003B   26035.21140837  .00023453  00000+0  62276-3 0  9992
2 12139  82.9399 320.9503 0264218 295.6799  61.7358 15.09717323309628
SL-3 R/B                
1 12465U 81046B   26035.22503423  .00014344  00000+0  34395-3 0  9996
2 12465  81.2351 329.8894 0020504 131.7035 228.5966 15.41040468433274
SL-3 R/B                
1 12904U 81103B   26035.15892813  .00005904  00000+0  26478-3 0  9999
2 12904  81.1557 252.7619 0014060  41.4603 318.7692 15.20962117968133
SL-3 R/B                
1 13068U 82013B   26035.18146010  .00005397  00000+0  23634-3 0  9993
2 13068  81.1738 200.0280 0021868 293.7368  66.1570 15.21637250399258
SL-3 R/B                
1 13154U 82039B   26035.12612972  .00002692  00000+0  16304-3 0  9997
2 13154  81.1619 254.6466 0030069  74.2676 286.1862 15.09891826376575
